STARLINK-2022           
1 47643U 21012Z   23241.40249325  .00003077  00000+0  22528-3 0  9999
2 47643  53.0517 236.4183 0001408  90.8003 269.3147 15.06411638140582
